$$SOE
2459580.500000000, A.D. 2022-Jan-01 00:00:00.0000, -2.046045814592336E+08, -3.584015155141784E+08, 4.487196562383369E+07,
2459587.500000000, A.D. 2022-Jan-08 00:00:00.0000, -1.948793708360873E+08, -3.630778186258532E+08, 4.461556066536079E+07,
2459594.500000000, A.D. 2022-Jan-15 00:00:00.0000, -1.850213311265483E+08, -3.675065850522861E+08, 4.432873822718185E+07,
2459601.500000000, A.D. 2022-Jan-22 00:00:00.0000, -1.750365867537897E+08, -3.716836215652563E+08, 4.401155171209754E+07,
2459608.500000000, A.D. 2022-Jan-29 00:00:00.0000, -1.649314068646536E+08, -3.756048669460951E+08, 4.366407612607455E+07,
2459615.500000000, A.D. 2022-Feb-05 00:00:00.0000, -1.547122055737984E+08, -3.792663982497892E+08, 4.328640857577172E+07,
2459622.500000000, A.D. 2022-Feb-12 00:00:00.0000, -1.443855398075694E+08, -3.826644381919942E+08, 4.287866847007936E+07,
2459629.500000000, A.D. 2022-Feb-19 00:00:00.0000, -1.339581060647826E+08, -3.857953612827474E+08, 4.244099773976536E+07,
2459636.500000000, A.D. 2022-Feb-26 00:00:00.0000, -1.234367373980941E+08, -3.886556994206444E+08, 4.197356113507020E+07,
2459643.500000000, A.D. 2022-Mar-05 00:00:00.0000, -1.128284004487935E+08, -3.912421475539292E+08, 4.147654653455678E+07,
2459650.500000000, A.D. 2022-Mar-12 00:00:00.0000, -1.021401923051370E+08, -3.935515694630976E+08, 4.095016523762250E+07,
2459657.500000000, A.D. 2022-Mar-19 00:00:00.0000, -9.137933710514908E+07, -3.955810036258966E+08, 4.039465223459473E+07,
2459664.500000000, A.D. 2022-Mar-26 00:00:00.0000, -8.055318235441723E+07, -3.973276691598843E+08, 3.981026645031294E+07,
2459671.500000000, A.D. 2022-Apr-02 00:00:00.0000, -6.966919488566758E+07, -3.987889718869925E+08, 3.919729094909097E+07,
2459678.500000000, A.D. 2022-Apr-09 00:00:00.0000, -5.873495618411911E+07, -3.999625105018859E+08, 3.855603307504879E+07,
2459685.500000000, A.D. 2022-Apr-16 00:00:00.0000, -4.775815671811916E+07, -4.008460821739531E+08, 3.788682454660942E+07,
2459692.500000000, A.D. 2022-Apr-23 00:00:00.0000, -3.674659053998641E+07, -4.014376864797192E+08, 3.719002170767556E+07,
2459699.500000000, A.D. 2022-Apr-30 00:00:00.0000, -2.570815202130211E+07, -4.017355298905641E+08, 3.646600592064595E+07,
2459706.500000000, A.D. 2022-May-07 00:00:00.0000, -1.465083165254217E+07, -4.017380327718071E+08, 3.571518365668505E+07,
2459713.500000000, A.D. 2022-May-14 00:00:00.0000, -3.582709512338232E+06, -4.014438358420329E+08, 3.493798640298022E+07,
2459720.500000000, A.D. 2022-May-21 00:00:00.0000, 7.488051564046786E+06, -4.008518053216667E+08, 3.413487063481972E+07,
2459727.500000000, A.D. 2022-May-28 00:00:00.0000, 1.855321263686172E+07, -3.999610377151562E+08, 3.330631781742483E+07,
2459734.500000000, A.D. 2022-Jun-04 00:00:00.0000, 2.960446540872144E+07, -3.987708645225860E+08, 3.245283438549384E+07,
2459741.500000000, A.D. 2022-Jun-11 00:00:00.0000, 4.063343920702321E+07, -3.972808568591765E+08, 3.157495168582232E+07,
2459748.500000000, A.D. 2022-Jun-18 00:00:00.0000, 5.163170823658136E+07, -3.954908299484499E+08, 3.067322587866104E+07,
2459755.500000000, A.D. 2022-Jun-25 00:00:00.0000, 6.259079912770211E+07, -3.934008475010283E+08, 2.974823779056127E+07,
2459762.500000000, A.D. 2022-Jul-02 00:00:00.0000, 7.350219890861656E+07, -3.910112260241792E+08, 2.880059269954517E+07,
2459769.500000000, A.D. 2022-Jul-09 00:00:00.0000, 8.435736378590296E+07, -3.883225388648382E+08, 2.783092003007972E+07,
2459776.500000000, A.D. 2022-Jul-16 00:00:00.0000, 9.514772866962214E+07, -3.853356188828639E+08, 2.683987305035880E+07,
2459783.500000000, A.D. 2022-Jul-23 00:00:00.0000, 1.058647152354940E+08, -3.820515596557220E+08, 2.582812877885354E+07,
2459790.500000000, A.D. 2022-Jul-30 00:00:00.0000, 1.164997385984323E+08, -3.784717185469046E+08, 2.479638781730986E+07,
2459797.500000000, A.D. 2022-Aug-06 00:00:00.0000, 1.270442161862709E+08, -3.745977209707665E+08, 2.374537383255289E+07,
2459804.500000000, A.D. 2022-Aug-13 00:00:00.0000, 1.374895779784465E+08, -3.704314630832655E+08, 2.267583298782919E+07,
2459811.500000000, A.D. 2022-Aug-20 00:00:00.0000, 1.478272765253119E+08, -3.659751133862875E+08, 2.158853342667805E+07,
2459818.500000000, A.D. 2022-Aug-27 00:00:00.0000, 1.580487967991707E+08, -3.612311139559551E+08, 2.048426474375223E+07,
2459825.500000000, A.D. 2022-Sep-03 00:00:00.0000, 1.681456661062819E+08, -3.562021813893775E+08, 1.936383741081077E+07,
2459832.500000000, A.D. 2022-Sep-10 00:00:00.0000, 1.781094641296310E+08, -3.508913074300504E+08, 1.822808215153608E+07,
2459839.500000000, A.D. 2022-Sep-17 00:00:00.0000, 1.879318331101611E+08, -3.453017592578000E+08, 1.707784926220238E+07,
2459846.500000000, A.D. 2022-Sep-24 00:00:00.0000, 1.976044882046310E+08, -3.394370794786172E+08, 1.591400786838967E+07,
2459853.500000000, A.D. 2022-Oct-01 00:00:00.0000, 2.071192282379261E+08, -3.333010858230200E+08, 1.473744509417175E+07,
2459860.500000000, A.D. 2022-Oct-08 00:00:00.0000, 2.164679472342523E+08, -3.268978700204450E+08, 1.354906514987108E+07,
2459867.500000000, A.D. 2022-Oct-15 00:00:00.0000, 2.256426457702633E+08, -3.202317946424679E+08, 1.234978852280498E+07,
2459874.500000000, A.D. 2022-Oct-22 00:00:00.0000, 2.346354399406635E+08, -3.133074895904940E+08, 1.114055133420575E+07,
2459881.500000000, A.D. 2022-Oct-29 00:00:00.0000, 2.434385704055541E+08, -3.061298508121560E+08, 9.922304421798423E+06,
2459888.500000000, A.D. 2022-Nov-05 00:00:00.0000, 2.520444135916180E+08, -2.987040384987012E+08, 8.696012180550367E+06,
2459895.500000000, A.D. 2022-Nov-12 00:00:00.0000, 2.604454930549363E+08, -2.910354734934282E+08, 7.462651446982712E+06,
2459902.500000000, A.D. 2022-Nov-19 00:00:00.0000, 2.686344902574759E+08, -2.831298328644734E+08, 6.223210416857645E+06,
2459909.500000000, A.D. 2022-Nov-26 00:00:00.0000, 2.766042549904041E+08, -2.749930450399839E+08, 4.978687541687474E+06,
2459916.500000000, A.D. 2022-Dec-03 00:00:00.0000, 2.843478155812073E+08, -2.666312845200452E+08, 3.730090390109405E+06,
2459923.500000000, A.D. 2022-Dec-10 00:00:00.0000, 2.918583889009694E+08, -2.580509661520454E+08, 2.478434473919332E+06,
2459930.500000000, A.D. 2022-Dec-17 00:00:00.0000, 2.991293901665674E+08, -2.492587390022222E+08, 1.224742037010685E+06,
2459937.500000000, A.D. 2022-Dec-24 00:00:00.0000, 3.061544426159684E+08, -2.402614798983443E+08, -2.995920562945306E+04,
2459944.500000000, A.D. 2022-Dec-31 00:00:00.0000, 3.129273873829615E+08, -2.310662865458999E+08, -1.284637400151700E+06,
2459951.500000000, A.D. 2023-Jan-07 00:00:00.0000, 3.194422936641228E+08, -2.216804692674923E+08, -2.538257886776477E+06,
2459958.500000000, A.D. 2023-Jan-14 00:00:00.0000, 3.256934671813866E+08, -2.121115408833585E+08, -3.789784309125900E+06,
2459965.500000000, A.D. 2023-Jan-21 00:00:00.0000, 3.316754562653336E+08, -2.023672079197632E+08, -5.038179697016016E+06,
2459972.500000000, A.D. 2023-Jan-28 00:00:00.0000, 3.373830592006556E+08, -1.924553633543325E+08, -6.282407871840224E+06,
2459979.500000000, A.D. 2023-Feb-04 00:00:00.0000, 3.428113326048300E+08, -1.823840778894371E+08, -7.521434904125184E+06,
2459986.500000000, A.D. 2023-Feb-11 00:00:00.0000, 3.479555990260287E+08, -1.721615899722334E+08, -8.754230470391050E+06,
2459993.500000000, A.D. 2023-Feb-18 00:00:00.0000, 3.528114536768327E+08, -1.617962954119241E+08, -9.979769166949302E+06,
2460000.500000000, A.D. 2023-Feb-25 00:00:00.0000, 3.573747705457426E+08, -1.512967367835067E+08, -1.119703181427835E+07,
2460007.500000000, A.D. 2023-Mar-04 00:00:00.0000, 3.616417079689266E+08, -1.406715926265436E+08, -1.240500675617054E+07,
2460014.500000000, A.D. 2023-Mar-11 00:00:00.0000, 3.656087136731665E+08, -1.299296664663455E+08, -1.360269115257756E+07,
2460021.500000000, A.D. 2023-Mar-18 00:00:00.0000, 3.692725293213986E+08, -1.190798757361621E+08, -1.478909227089019E+07,
2460028.500000000, A.D. 2023-Mar-25 00:00:00.0000, 3.726301947493988E+08, -1.081312406775387E+08, -1.596322879461006E+07,
2460035.500000000, A.D. 2023-Apr-01 00:00:00.0000, 3.756790523048372E+08, -9.709287285442188E+07, -1.712413215258904E+07,
2460042.500000000, A.D. 2023-Apr-08 00:00:00.0000, 3.784167506658852E+08, -8.597396208505230E+07, -1.827084770849499E+07,
2460049.500000000, A.D. 2023-Apr-15 00:00:00.0000, 3.808412458001716E+08, -7.478376293130073E+07, -1.940243568307061E+07,
2460056.500000000, A.D. 2023-Apr-22 00:00:00.0000, 3.829508008684523E+08, -6.353158383261581E+07, -2.051797222159393E+07,
2460063.500000000, A.D. 2023-Apr-29 00:00:00.0000, 3.847439878024706E+08, -5.222677666361821E+07, -2.161655067036530E+07,
2460070.500000000, A.D. 2023-May-06 00:00:00.0000, 3.862196887963108E+08, -4.087872496539360E+07, -2.269728275231599E+07,
2460077.500000000, A.D. 2023-May-13 00:00:00.0000, 3.873770967375759E+08, -2.949683177628202E+07, -2.375929962258077E+07,
2460084.500000000, A.D. 2023-May-20 00:00:00.0000, 3.882157148173503E+08, -1.809050758552285E+07, -2.480175286336773E+07,
2460091.500000000, A.D. 2023-May-27 00:00:00.0000, 3.887353555190052E+08, -6.669158470814753E+06, -2.582381543625181E+07,
2460098.500000000, A.D. 2023-Jun-03 00:00:00.0000, 3.889361390520622E+08, 4.757825575396640E+06, -2.682468259326142E+07,
2460105.500000000, A.D. 2023-Jun-10 00:00:00.0000, 3.888184912657681E+08, 1.618108208720700E+07, -2.780357274852050E+07,
2460112.500000000, A.D. 2023-Jun-17 00:00:00.0000, 3.883831411444578E+08, 2.759128724465574E+07, -2.875972832226386E+07,
2460119.500000000, A.D. 2023-Jun-24 00:00:00.0000, 3.876311182184505E+08, 3.897916669769854E+07, -2.969241658100697E+07,
2460126.500000000, A.D. 2023-Jul-01 00:00:00.0000, 3.865637501562070E+08, 5.033550689579492E+07, -3.060093042825687E+07,
2460133.500000000, A.D. 2023-Jul-08 00:00:00.0000, 3.851826588800142E+08, 6.165116772292705E+07, -3.148458892380212E+07,
2460140.500000000, A.D. 2023-Jul-15 00:00:00.0000, 3.834897539524581E+08, 7.291709358560641E+07, -3.234273764538012E+07,
2460147.500000000, A.D. 2023-Jul-22 00:00:00.0000, 3.814872267764589E+08, 8.412432189430127E+07, -3.317474930027135E+07,
$$EOE